OBJECT_NAME,OBJECT_ID,EPOCH,MEAN_MOTION,ECCENTRICITY,INCLINATION,RA_OF_ASC_NODE,ARG_OF_PERICENTER,MEAN_ANOMALY,EPHEMERIS_TYPE,CLASSIFICATION_TYPE,NORAD_CAT_ID,ELEMENT_SET_NO,REV_AT_EPOCH,BSTAR,MEAN_MOTION_DOT,MEAN_MOTION_DDOT
FLOCK 4BE-11,2024-149AK,2026-06-20T05:32:00.777120,15.43058603,.0002785,97.3696,255.4241,242.5833,117.5132,0,U,60501,999,10282,.32994E-3,.14492E-3,0
YAM-7,2024-149AN,2026-06-20T04:37:39.871776,15.31852973,.00018204,97.3780,251.4304,287.5233,72.5809,0,U,60504,999,10251,.19370474E-3,.5879E-4,0
FLOCK 4BE-24,2024-149AP,2026-06-20T05:12:23.838048,15.43167776,.0002914,97.3712,255.6671,257.1798,102.9124,0,U,60505,999,10283,.38285E-3,.16897E-3,0
LUR-1,2024-149AQ,2026-06-20T04:28:34.749120,15.30137974,.00026026,97.3736,249.9934,303.9711,56.1282,0,U,60506,999,10243,.19623974E-3,.5647E-4,0
TANAGER-1,2024-149AR,2026-06-20T06:26:55.583232,15.44828849,.0002975,97.2525,265.5165,287.1380,72.9543,0,U,60507,999,10351,.29574E-4,.1299E-4,0
EAGLEEYE,2024-149AS,2026-06-20T05:27:22.322016,15.71393531,.0004548,97.3718,264.7338,228.7265,131.3607,0,U,60508,999,10341,.6509E-3,.83346E-3,0
FLOCK 4BE-29,2024-149AT,2026-06-20T11:38:11.777856,15.44233040,.000145,97.3807,257.4076,268.6256,91.4826,0,U,60509,999,10292,.30712E-3,.14027E-3,0
TRANSPORTER-11 OBJECT AU,2024-149AU,2026-06-19T18:52:38.259552,15.40282130,.00022433,97.3727,254.5279,273.5736,86.5253,0,U,60510,999,10271,.31132352E-3,.12458E-3,0
FLOCK 4BE-2,2024-149AV,2026-06-20T11:23:16.946880,15.53022547,.0003691,97.3829,258.8638,240.8493,119.2391,0,U,60511,999,10301,.82249E-3,.51495E-3,0
FLOCK 4BE-13,2024-149AW,2026-06-20T11:10:32.363040,15.41960573,.0003094,97.3717,255.9111,243.7349,116.3580,0,U,60512,999,10287,.27918E-3,.11803E-3,0
FLOCK 4BE-27,2024-149AX,2026-06-20T04:39:38.083392,15.34490425,.00023655,97.3817,253.0465,300.5586,59.5424,0,U,60513,999,10260,.23967145E-3,.7928E-4,0
FLOCK 4BE-9,2024-149AY,2026-06-20T04:58:34.127616,15.40870485,.0001427,97.3792,255.5086,270.9327,89.1756,0,U,60514,999,10278,.31633115E-3,.12909E-3,0
FLOCK 4BE-6,2024-149BA,2026-06-19T21:55:30.122112,15.39638350,.00021147,97.3787,254.5650,275.2272,84.8733,0,U,60516,999,10269,.31585845E-3,.12376E-3,0
FLOCK 4BE-14,2024-149BB,2026-06-20T11:29:59.609760,15.41076009,.0003096,97.3691,255.2742,273.0986,86.9906,0,U,60517,999,10283,.3232E-3,.13283E-3,0
FLOCK 4BE-1,2024-149BC,2026-06-19T20:13:55.701120,15.42673482,.00029228,97.3778,255.9192,275.5654,84.5260,0,U,60518,999,10278,.34673633E-3,.1504E-3,0
FLOCK 4BE-28,2024-149BD,2026-06-20T04:15:00.252864,15.44998345,.0003015,97.3744,256.9909,266.1149,93.9755,0,U,60519,999,10290,.33025212E-3,.15492E-3,0
IPERDRONE.0,2024-149BE,2026-06-20T05:51:43.499808,15.67047468,.0003887,97.3776,264.6075,217.5725,142.5264,0,U,60520,999,10339,.64581E-3,.69059E-3,0
TRANSPORTER-11 OBJECT BF,2024-149BF,2026-06-20T05:19:40.600416,15.86087561,.0006432,97.3747,267.3993,230.2461,129.8244,0,U,60521,999,10356,.10003E-2,.252592E-2,0
CONNECTA IOT-2,2024-149BG,2026-06-20T04:48:35.749728,15.23996059,.00052741,97.3835,249.3006,325.1773,34.9119,0,U,60522,999,10235,.14763615E-3,.3505E-4,0
CONNECTA IOT-4,2024-149BJ,2026-06-20T04:36:31.404960,15.42234365,.00041041,97.3793,255.5979,270.4483,89.6294,0,U,60524,999,10279,.39643882E-3,.16963E-3,0
ORESAT0.5,2024-149BK,2026-06-20T05:26:34.083168,15.45176617,.0004233,97.3717,257.2736,258.8825,101.1948,0,U,60525,999,10294,.35667E-3,.16846E-3,0
DEIMOS,2024-149BL,2026-06-20T04:42:04.629888,15.44313299,.00041053,97.3776,257.3813,266.7734,93.3045,0,U,60526,999,10291,.35042916E-3,.16069E-3,0
CUAVA-2,2024-149BM,2026-06-20T11:17:26.086848,15.36179506,.0005196,97.3722,252.9954,279.3263,80.7394,0,U,60527,999,10267,.28589E-3,.10003E-3,0
ERNST,2024-149BN,2026-06-20T11:38:46.421664,15.39280962,.0004395,97.3803,255.2298,281.8974,78.1779,0,U,60528,999,10278,.296E-3,.11458E-3,0
TORO,2024-149BQ,2026-06-19T18:44:14.449056,14.96432819,.00013633,97.6789,245.4002,79.8370,280.3006,0,U,60530,999,10034,.88527122E-4,.947E-5,0
HYPSO-2,2024-149BR,2026-06-20T06:31:19.676064,14.98799188,.0000246,97.6811,247.4874,82.3956,277.7295,0,U,60531,999,10051,.14949E-3,.1743E-4,0
LEMU NGE,2024-149BS,2026-06-20T04:43:54.052032,14.94962873,.00018645,97.6842,246.0960,60.6142,299.5264,0,U,60532,999,10040,.12506325E-3,.131E-4,0
LEMUR-2-STELLA,2024-149BT,2026-06-20T04:37:15.289248,15.11860730,.00014284,97.6729,253.6607,96.0742,264.0650,0,U,60533,999,10095,.53784528E-3,.9138E-4,0
SATELIOT_2,2024-149BU,2026-06-20T04:03:39.839040,14.96373723,.00021157,97.6832,246.0708,89.9139,270.2325,0,U,60534,999,10041,.14614989E-3,.1598E-4,0
NIGHTJAR,2024-149BV,2026-06-20T04:42:13.843584,14.99028220,.00009477,97.6834,247.8615,83.6034,276.5297,0,U,60535,999,14332,.16118261E-3,.1896E-4,0
LEMUR-2-MARHISYAM,2024-149BW,2026-06-20T10:31:51.009312,15.11315673,.0003331,97.6879,254.3603,111.8781,248.2803,0,U,60536,999,10097,.52182E-3,.873E-4,0
SATELIOT_4,2024-149BX,2026-06-19T18:40:43.983840,14.96677581,.00030299,97.6740,245.2131,52.8583,307.2915,0,U,60537,999,10036,.86439488E-4,.929E-5,0
PICO-02A021,2024-149BY,2026-06-20T03:52:58.573056,15.03278841,.00047541,97.6753,249.9672,20.5704,339.5712,0,U,60538,999,10018,.32919725E-3,.4402E-4,0
ICEYE-X43,2024-149BZ,2026-06-20T03:57:13.696704,14.99634550,.00082954,97.6791,248.0884,76.2466,283.9680,0,U,60539,999,10056,.25550404E-3,.309E-4,0
HAWK-10A,2024-149CA,2026-06-19T18:39:17.367840,14.96524133,.00048779,97.6899,246.6442,71.6468,288.5284,0,U,60540,999,10037,.926181E-4,.996E-5,0
UMBRA-09,2024-149CB,2026-06-19T18:28:44.105952,15.18109295,.0000628,97.6955,258.0212,258.1312,101.9851,0,U,60541,999,10111,.54655374E-3,.11086E-3,0
QPS-SAR-8 (AMATERU-IV),2024-149CC,2026-06-20T10:52:51.409056,15.04154503,.0004471,97.6648,250.5761,101.8607,258.3120,0,U,60542,999,10076,.27197E-3,.3712E-4,0
ARCTIC WEATHER SATELLITE,2024-149CD,2026-06-20T10:40:27.670080,14.89786475,.0003665,97.6803,241.8173,98.0673,262.0961,0,U,60543,999,9978,.6165E-4,.538E-5,0
CAPELLA-15 (ACADIA-5),2024-149CE,2026-06-20T11:22:13.751328,14.92412183,.0004546,97.6768,244.2947,70.1549,290.0160,0,U,60544,999,10034,.32315E-3,.3255E-4,0
HAWK-10B,2024-149CF,2026-06-19T18:39:04.375008,14.96523125,.00068201,97.6819,245.9967,85.6924,274.5077,0,U,60545,999,10037,.84625194E-4,.905E-5,0
ICEYE-X39,2024-149CG,2026-06-20T05:05:56.404032,14.99909996,.0005642,97.6757,248.1948,110.8245,249.3583,0,U,60546,999,10057,.19379E-3,.2346E-4,0
UMBRA-10,2024-149CH,2026-06-20T05:32:29.803200,15.18117660,.000045,97.6973,258.5166,96.2050,263.9234,0,U,60547,999,10119,.63693E-3,.12937E-3,0
ICEYE-X33,2024-149CJ,2026-06-20T04:03:42.562368,15.00886995,.00018635,97.7287,250.2934,87.7623,272.3814,0,U,60548,999,10065,.30043992E-3,.3764E-4,0
ICEYE-X40,2024-149CK,2026-06-20T04:11:56.646816,14.97952761,.00064517,97.6821,247.6228,73.4508,286.7422,0,U,60549,999,10052,.12965842E-3,.1471E-4,0
SATELIOT_1,2024-149CL,2026-06-20T00:46:31.234080,14.98081894,.00083965,97.6759,246.8828,72.2480,287.9659,0,U,60550,999,10049,.18921942E-3,.2182E-4,0
BRO-14,2024-149CM,2026-06-20T11:20:12.623712,14.96180610,.0008055,97.6871,247.1911,88.7163,271.4982,0,U,60551,999,10048,.78789E-4,.831E-5,0
SATELIOT_3,2024-149CN,2026-06-20T11:24:57.391200,14.98063078,.0005953,97.6815,248.1133,79.2522,280.9371,0,U,60552,999,10057,.13612E-3,.1552E-4,0
BRO-15,2024-149CP,2026-06-19T17:15:36.186048,14.96168721,.00093107,97.6803,246.0506,80.7782,279.4492,0,U,60553,999,10038,.11371806E-3,.1225E-4,0
UM5-RIBAT,2024-149CQ,2026-06-20T11:19:28.500096,15.01090090,.0003288,97.6628,249.2283,56.5860,303.5678,0,U,60554,999,10068,.18095E-3,.2256E-4,0
UM5-EOSAT,2024-149CR,2026-06-20T04:05:47.469984,15.01552474,.00088875,97.6716,249.8717,105.2114,255.0094,0,U,60555,999,10066,.28428595E-3,.3625E-4,0
LASARSAT,2024-247Q,2026-06-20T06:29:39.147072,15.46534749,.0007836,44.9733,244.8864,348.4451,11.6258,0,U,62391,999,8379,.56523E-3,.28493E-3,0
CROCUBE,2024-247T,2026-06-19T11:46:17.971392,15.48397693,.00077409,44.9701,246.5654,349.0739,10.9982,0,U,62394,999,8370,.60621754E-3,.32668E-3,0
TEVEL2-4,2025-052D,2026-06-20T10:37:00.202080,15.34707854,.0004959,97.3895,67.8392,96.9497,263.2310,0,U,63213,999,7061,.47906E-3,.16057E-3,0
TEVEL2-5,2025-052E,2026-06-20T06:25:21.136800,15.34527610,.0004895,97.3892,67.6107,98.9294,261.2503,0,U,63214,999,7058,.47945E-3,.15978E-3,0
TEVEL2-6,2025-052F,2026-06-20T06:43:12.624672,15.34492782,.0004759,97.3898,67.6078,99.4633,260.7149,0,U,63215,999,7058,.47994E-3,.15976E-3,0
TEVEL2-1,2025-052H,2026-06-20T04:18:41.324544,15.33952529,.00048734,97.3873,67.1285,107.5627,252.6148,0,U,63217,999,7055,.47659428E-3,.15594E-3,0
TEVEL2-3,2025-052J,2026-06-20T10:26:32.863776,15.34015837,.0004851,97.3872,67.4058,107.4306,252.7467,0,U,63218,999,7059,.46415E-3,.15215E-3,0
TEVEL2-2,2025-052K,2026-06-20T10:34:51.403872,15.33968526,.0004899,97.3872,67.3917,108.0209,252.1568,0,U,63219,999,7059,.46281E-3,.15148E-3,0
TEVEL2-9,2025-052AD,2026-06-20T10:08:24.298080,15.31981442,.0008057,97.3932,66.7416,121.8629,238.3398,0,U,63237,999,7052,.45158E-3,.1389E-3,0
TEVEL2-7,2025-052AE,2026-06-20T04:51:54.637344,15.31676701,.0008076,97.3934,66.4373,122.8867,237.3153,0,U,63238,999,7048,.43885E-3,.13367E-3,0
TEVEL2-8,2025-052AF,2026-06-19T16:31:13.361376,15.31647647,.00080754,97.3937,65.9009,124.5955,235.6049,0,U,63239,999,7040,.41221495E-3,.12538E-3,0
FORESAIL-1 PRIME,2025-276DS,2026-06-19T10:25:32.106432,15.18719306,.00039613,97.4197,243.6644,98.6161,261.5522,0,U,66778,999,3074,.19871349E-3,.4058E-4,0
